{
  "type": "FeatureCollection",
  "features": [
    {
      "type": "Feature",
      "properties": {
        "norad_id": 33412,
        "name": "COSMO-SKYMED 3",
        "group": "resource",
        "lat": 69.10211081313298,
        "lon": 27.846748052991902,
        "alt_km": 545.784901340191,
        "timestamp": "2025-12-02T10:50:46.929924+00:00",
        "meta_object_name": "COSMO-SKYMED 3",
        "meta_object_id": "2008-054A",
        "meta_epoch": "2025-12-02T03:58:44.690592",
        "meta_mean_motion": 15.05195531,
        "meta_eccentricity": 0.0015272,
        "meta_inclination": 97.8476,
        "meta_ra_of_asc_node": 186.3803,
        "meta_arg_of_pericenter": 209.0811,
        "meta_mean_anomaly": 150.9566,
        "meta_ephemeris_type": 0,
        "meta_classification_type": "U",
        "meta_norad_cat_id": 33412,
        "meta_element_set_no": 999,
        "meta_rev_at_epoch": 92728,
        "meta_bstar": 0.00036432,
        "meta_mean_motion_dot": 5.145e-05,
        "meta_mean_motion_ddot": 0,
        "tle_line1": "1 33412U 08054A   25336.16579503  .00005145  00000+0  36432-3 0  9990",
        "tle_line2": "2 33412  97.8476 186.3803 0015272 209.0811 150.9566 15.05195531927288"
      },
      "geometry": {
        "type": "Point",
        "coordinates": [
          27.846748052991902,
          69.10211081313298
        ]
      }
    },
    {
      "type": "Feature",
      "properties": {
        "norad_id": 33446,
        "name": "YAOGAN-4",
        "group": "resource",
        "lat": -27.116785869776916,
        "lon": 82.56662447364242,
        "alt_km": 635.6530364656437,
        "timestamp": "2025-12-02T10:50:46.929935+00:00",
        "meta_object_name": "YAOGAN-4",
        "meta_object_id": "2008-061A",
        "meta_epoch": "2025-12-02T01:48:54.750816",
        "meta_mean_motion": 14.82626572,
        "meta_eccentricity": 0.0014513,
        "meta_inclination": 97.9167,
        "meta_ra_of_asc_node": 266.2805,
        "meta_arg_of_pericenter": 358.8966,
        "meta_mean_anomaly": 1.2213,
        "meta_ephemeris_type": 0,
        "meta_classification_type": "U",
        "meta_norad_cat_id": 33446,
        "meta_element_set_no": 999,
        "meta_rev_at_epoch": 91645,
        "meta_bstar": 0.00023667,
        "meta_mean_motion_dot": 1.856e-05,
        "meta_mean_motion_ddot": 0,
        "tle_line1": "1 33446U 08061A   25336.07563369  .00001856  00000+0  23667-3 0  9999",
        "tle_line2": "2 33446  97.9167 266.2805 0014513 358.8966   1.2213 14.82626572916456"
      },
      "geometry": {
        "type": "Point",
        "coordinates": [
          82.56662447364242,
          -27.116785869776916
        ]
      }
    },
    {
      "type": "Feature",
      "properties": {
        "norad_id": 33492,
        "name": "GOSAT (IBUKI)",
        "group": "resource",
        "lat": 78.53564187815805,
        "lon": -50.36050920246828,
        "alt_km": 660.8990652191342,
        "timestamp": "2025-12-02T10:50:46.929945+00:00",
        "meta_object_name": "GOSAT (IBUKI)",
        "meta_object_id": "2009-002A",
        "meta_epoch": "2025-12-02T03:51:19.536192",
        "meta_mean_motion": 14.67546629,
        "meta_eccentricity": 9.98e-05,
        "meta_inclination": 98.0766,
        "meta_ra_of_asc_node": 84.9112,
        "meta_arg_of_pericenter": 84.2338,
        "meta_mean_anomaly": 275.898,
        "meta_ephemeris_type": 0,
        "meta_classification_type": "U",
        "meta_norad_cat_id": 33492,
        "meta_element_set_no": 999,
        "meta_rev_at_epoch": 90256,
        "meta_bstar": 0.00020425,
        "meta_mean_motion_dot": 1.111e-05,
        "meta_mean_motion_ddot": 0,
        "tle_line1": "1 33492U 09002A   25336.16064278  .00001111  00000+0  20425-3 0  9994",
        "tle_line2": "2 33492  98.0766  84.9112 0000998  84.2338 275.8980 14.67546629902569"
      },
      "geometry": {
        "type": "Point",
        "coordinates": [
          -50.36050920246828,
          78.53564187815805
        ]
      }
    },
    {
      "type": "Feature",
      "properties": {
        "norad_id": 35681,
        "name": "DEIMOS-1",
        "group": "resource",
        "lat": -79.44101739185574,
        "lon": -89.11789969131493,
        "alt_km": 654.5459149622802,
        "timestamp": "2025-12-02T10:50:46.929956+00:00",
        "meta_object_name": "DEIMOS-1",
        "meta_object_id": "2009-041A",
        "meta_epoch": "2025-12-02T04:46:26.857344",
        "meta_mean_motion": 14.74925681,
        "meta_eccentricity": 0.0002666,
        "meta_inclination": 97.7145,
        "meta_ra_of_asc_node": 137.2935,
        "meta_arg_of_pericenter": 98.7938,
        "meta_mean_anomaly": 261.3574,
        "meta_ephemeris_type": 0,
        "meta_classification_type": "U",
        "meta_norad_cat_id": 35681,
        "meta_element_set_no": 999,
        "meta_rev_at_epoch": 87784,
        "meta_bstar": 0.00013823,
        "meta_mean_motion_dot": 8.81e-06,
        "meta_mean_motion_ddot": 0,
        "tle_line1": "1 35681U 09041A   25336.19892196  .00000881  00000+0  13823-3 0  9997",
        "tle_line2": "2 35681  97.7145 137.2935 0002666  98.7938 261.3574 14.74925681877841"
      },
      "geometry": {
        "type": "Point",
        "coordinates": [
          -89.11789969131493,
          -79.44101739185574
        ]
      }
    },
    {
      "type": "Feature",
      "properties": {
        "norad_id": 35682,
        "name": "DUBAISAT-1",
        "group": "resource",
        "lat": -30.38777281084685,
        "lon": -77.43374107425818,
        "alt_km": 657.9883124124935,
        "timestamp": "2025-12-02T10:50:46.929968+00:00",
        "meta_object_name": "DUBAISAT-1",
        "meta_object_id": "2009-041B",
        "meta_epoch": "2025-12-01T22:29:36.780864",
        "meta_mean_motion": 14.74553028,
        "meta_eccentricity": 0.0010246,
        "meta_inclination": 97.9785,
        "meta_ra_of_asc_node": 106.777,
        "meta_arg_of_pericenter": 351.216,
        "meta_mean_anomaly": 8.8867,
        "meta_ephemeris_type": 0,
        "meta_classification_type": "U",
        "meta_norad_cat_id": 35682,
        "meta_element_set_no": 999,
        "meta_rev_at_epoch": 87602,
        "meta_bstar": 0.00022492,
        "meta_mean_motion_dot": 1.448e-05,
        "meta_mean_motion_ddot": 0,
        "tle_line1": "1 35682U 09041B   25335.93723126  .00001448  00000+0  22492-3 0  9997",
        "tle_line2": "2 35682  97.9785 106.7770 0010246 351.2160   8.8867 14.74553028876029"
      },
      "geometry": {
        "type": "Point",
        "coordinates": [
          -77.43374107425818,
          -30.38777281084685
        ]
      }
    },
    {
      "type": "Feature",
      "properties": {
        "norad_id": 35931,
        "name": "OCEANSAT-2",
        "group": "resource",
        "lat": -76.93577310043949,
        "lon": 16.643412207004175,
        "alt_km": 913.0576486609089,
        "timestamp": "2025-12-02T10:50:46.929979+00:00",
        "meta_object_name": "OCEANSAT-2",
        "meta_object_id": "2009-051A",
        "meta_epoch": "2025-12-02T04:21:53.384832",
        "meta_mean_motion": 13.9962682,
        "meta_eccentricity": 0.0016667,
        "meta_inclination": 98.2232,
        "meta_ra_of_asc_node": 337.8528,
        "meta_arg_of_pericenter": 72.4172,
        "meta_mean_anomaly": 287.8814,
        "meta_ephemeris_type": 0,
        "meta_classification_type": "U",
        "meta_norad_cat_id": 35931,
        "meta_element_set_no": 999,
        "meta_rev_at_epoch": 85177,
        "meta_bstar": -8.3538e-05,
        "meta_mean_motion_dot": -1.6e-06,
        "meta_mean_motion_ddot": 0,
        "tle_line1": "1 35931U 09051A   25336.18186788 -.00000160  00000+0 -83538-4 0  9991",
        "tle_line2": "2 35931  98.2232 337.8528 0016667  72.4172 287.8814 13.99626820851776"
      },
      "geometry": {
        "type": "Point",
        "coordinates": [
          16.643412207004175,
          -76.93577310043949
        ]
      }
    },
    {
      "type": "Feature",
      "properties": {
        "norad_id": 35946,
        "name": "WORLDVIEW-2 (WV-2)",
        "group": "resource",
        "lat": 72.56889226509783,
        "lon": 19.31996878330135,
        "alt_km": 755.5713258217229,
        "timestamp": "2025-12-02T10:50:46.929989+00:00",
        "meta_object_name": "WORLDVIEW-2 (WV-2)",
        "meta_object_id": "2009-055A",
        "meta_epoch": "2025-12-02T03:49:07.968864",
        "meta_mean_motion": 14.37644536,
        "meta_eccentricity": 0.0005441,
        "meta_inclination": 98.4773,
        "meta_ra_of_asc_node": 47.3913,
        "meta_arg_of_pericenter": 92.1985,
        "meta_mean_anomaly": 267.9825,
        "meta_ephemeris_type": 0,
        "meta_classification_type": "U",
        "meta_norad_cat_id": 35946,
        "meta_element_set_no": 999,
        "meta_rev_at_epoch": 84733,
        "meta_bstar": 8.7495e-05,
        "meta_mean_motion_dot": 2.19e-06,
        "meta_mean_motion_ddot": 0,
        "tle_line1": "1 35946U 09055A   25336.15912001  .00000219  00000+0  87495-4 0  9992",
        "tle_line2": "2 35946  98.4773  47.3913 0005441  92.1985 267.9825 14.37644536847339"
      },
      "geometry": {
        "type": "Point",
        "coordinates": [
          19.31996878330135,
          72.56889226509783
        ]
      }
    }
  ]
}